#dP2023  3 17 12  0  0.00000000      96 __u+U ITR00 EXT  IAC
## 2253 475200.00000000   900.00000000 60020 0.5000000000000
+  119   C06C07C08C09C10C11C12C13C14C16C19C20C21C22C23C24C25
+        C26C27C28C29C30C32C33C34C35C36C37C38C39C40C41C42C43
+        C44C45C46E01E02E03E04E05E07E08E09E10E11E12E13E14E15
+        E18E19E21E24E25E26E27E31E33E34E36G01G02G03G04G05G06
+        G07G08G09G10G11G12G13G14G15G16G17G18G19G20G21G22G23
+        G24G25G26G27G28G29G30G31G32J02J03J04R01R02R03R04R05
+        R07R08R09R11R12R13R14R15R16R17R18R19R20R21R22R24R25
++        11  8 11  8  8  9  9 11  9 11  9  8  9  7  8  8  7
++         9  9 10  8  9  9 10  9  8  7  7 10  7  7 10  8  7
++         9  9  8  7  7  8  7  7  7  8  7  7  7  8  8  8  7
++         7  7  8  7  7  8  7  7  8  7  8  7  8  8  7  8  8
++         7  7  7  7  8  8  8  7  8  7  8  7  8  8  7  7  7
++         7  7  8  7  7  7  7  7  8 11 10  9  9 10  9  8  7
++         8  7  8  8  9  9  8  7  8  7  8 10 10  9  8  8  9
%c M  cc GPS ccc cccc cccc cccc cccc ccccc ccccc ccccc ccccc
%c cc cc ccc ccc cccc cccc cccc cccc ccccc ccccc ccccc ccccc
%f  0.0000000  0.000000000  0.00000000000  0.000000000000000
%f  0.0000000  0.000000000  0.00000000000  0.000000000000000
%i    0    0    0    0      0      0      0      0         0
%i    0    0    0    0      0      0      0      0         0
/* IAC                                ULTRA-RAPID PREDICTION
/* S/V CLOCKS ARE ALIGNED TO GNSS TIME                      
/* G:C1WC2W R:C1PC2P E:C1XC5X C:C2IC6I J:C1CC2S             
/* PCV:IGS20_2247 OL/AL:FES2004  NONE     YN ORB:CoN CLK:CoN
*  2023 03 18  9 15  0.00000000
PC06  -3252.960346  27133.564513 -32020.226565   -196.261194
PC07 -18066.217941  30907.868878  22185.140917    -37.513474
PC08  -8756.640089  40843.840834   6396.793499    517.475305
PC09   5592.717039  31090.837305 -27256.148155    868.692297
PC10  -9817.398974  31044.631681  26835.283961    -11.882956
PC11   7413.278670 -13418.494493 -23253.223010    712.389256
PC12  22332.513859    -67.870737 -16697.205352    513.831598
PC13  -4523.995995  42059.751122    630.955659    232.197297
PC14  16046.603691 -19560.217138  11863.652504      7.187409
PC16  -5182.295751  25358.406154 -33003.943987    135.349892
PC19  -7014.308360  19404.267255 -18747.137784   -896.322032
PC20 -21517.893033  17107.115260  -4690.087872    673.578858
PC21  24163.684460  -4267.982367 -13292.097414   -908.778310
PC22  12291.180043  10618.449498 -22689.133598   -580.299587
PC23 -10217.273506 -22319.969187 -13271.624534   -889.978941
PC24  12979.810802 -16172.443789  18644.289981   -280.964838
PC25    574.516035 -27740.940317   2856.215203     89.746969
PC26  16314.932499   2566.773865  22478.836969    -93.505332
PC27 -25384.483209  -6336.920100   9711.077423    112.260194
PC28 -21050.842299 -17021.429856  -6779.111834     82.282122
PC29   3811.755245  18167.261364  20827.273909     95.048044
PC30 -16103.690396   8418.512891  21177.597089      0.820161
PC32 -24095.696621   4340.779026  13400.223405   -597.232210
PC33   6984.216931 -19512.816407  18707.045283   -870.999092
PC34  14967.060274  -9376.708067 -21612.423037    129.081091
PC35  20976.720332  16666.402372   7717.750552    662.420353
PC36  -1691.733230  27633.116869  -3524.197166   -557.414310
PC37 -16170.199159  -4454.450172 -22294.081231   -801.192181
PC38 -13113.322486  37494.820238  14377.771419     65.753133
PC39 -10740.588149  21713.640361 -34457.202598     -2.211862
PC40 -24849.821728  25284.668703  22634.107718    -17.861933
PC41 -11734.354905 -11105.725607  22811.045277   -737.743640
PC42  22145.995897 -16647.465231   3503.071745   -781.469532
PC43  -2858.860176 -18081.767445 -21080.756959     12.318832
PC44  25637.451016   5437.629667  -9547.243037     47.888549
PC45  10342.123687  22043.468823  13647.773050    -73.635028
PC46 -12181.470217  17779.164208 -17756.246321    -40.659332
PE01   7256.359993 -26761.368125 -10353.643160    -14.975160
PE02  -6914.350158  26707.582077  10746.048843     27.011280
PE03   -611.864873  17013.664279 -24212.042948   -660.303272
PE04 -20165.266857 -12378.407528  17797.224849    -80.917407
PE05 -21563.531114  11743.383634 -16524.746342    -85.370095
PE07  29589.145799    408.664955   -842.251772    -30.746169
PE08  20025.187591  12314.194830 -17986.990442    -52.953469
PE09 -29571.740067   -486.728553   1049.967770   -872.993854
PE10 -20214.898579 -16584.387228  13872.243815   -519.914739
PE11 -19666.105237  -6398.149098  21177.447513   1287.262169
PE12 -17541.862612 -23308.113434   5099.288099   -462.760867
PE13  19791.538864   7242.055287 -20774.526966    -17.807652
PE14   7778.949407  16180.971190  18257.687091    171.627804
PE15  17415.854910  23445.456770  -4762.872790     -8.250932
PE18   3400.178918 -19580.339330 -23724.869568   -270.084571
PE19   3792.399157 -16752.442257  24118.153892  -2981.116107
PE21  18207.317211 -22300.493489   6857.808430   -518.174605
PE24 -19614.411432   3820.036333 -21865.969678  -1171.530094
PE25 -18344.622239  22101.903014  -7175.602059   -601.546549
PE26  10139.746117 -13809.254098 -24134.753964     48.848989
PE27  19742.496327  -4743.378858  21528.610774   -537.597258
PE31  -9643.271429 -15403.495368 -23362.828258   -518.860878
PE33  -4790.904595 -25687.010433 -13918.999674   -448.890811
PE34   4952.638145  25717.063461  13789.494827    -35.503722
PE36 -10562.663683  12975.517125  24418.790483    -27.921202
PG01 -17090.769985  -6139.881603  19188.565909    201.649829
PG02  16718.043494    859.645189 -19941.348401   -613.472822
PG03 -18277.461665   5666.910817  18244.906480   -347.705258
PG04 -26440.964123    -34.036518  -3088.341345     -4.409862
PG05  11297.577661  10566.359847 -21748.871004   -119.916636
PG06   3485.182298  23670.391424  11491.396995    582.077677
PG07 -12350.410175   9103.498514 -21207.934207    220.715952
PG08 -24223.159750  -6911.526493  -9090.806797   -113.495048
PG09 -21740.980384   8468.456455 -12805.380248   -198.336818
PG10  10195.267003 -23607.383445   6135.670829    -29.034692
PG11  12276.204530  23471.627236  -2188.048344   -133.898123
PG12  18136.537541  -2385.677265  18939.877205   -352.937196
PG13  18571.963235  13226.422721 -13962.162195    492.268733
PG14 -12915.847572  22886.959537   3312.080009     -0.790440
PG15  24854.833672   4525.879307  -9077.935078     22.591172
PG16  -8242.498072 -13629.933872 -21485.623654   -514.723301
PG17  -9584.577868  13434.938235  21264.306807    706.073999
PG18   9422.896388 -13196.934270 -21004.887375   -184.709921
PG19   1935.726667  15114.004380  21554.612993    291.592475
PG20   4913.931480  19774.528841 -17109.707212    444.319496
PG21 -19523.937904 -13050.149798  13751.327556    154.331199
PG22  -5610.526421 -15629.631613  21206.131583    447.434744
PG23  16555.107822 -19847.542680  -5768.469949     11.275247
PG24  19384.399664   9143.559043  15593.414702   -116.368338
PG25  18900.035389 -13065.476467  12770.950982    428.612112
PG26    843.051084 -22578.863055 -13800.845481    241.977853
PG27 -15818.923701 -12784.268686 -17542.119466     78.540370
PG28  -2668.941467 -23076.972617  12850.959385     45.983136
PG29  24275.638166  -3899.922147 -10197.798465   -591.375156
PG30  -3371.661928  20343.685973 -16492.702406   -526.421004
PG31  -5807.399991 -24439.581023   7744.470097   -211.878346
PG32   5609.969645 -14825.873967  21458.277360   -426.736621
PJ02 -26998.835170  31524.844574  -2957.812445     -1.219092
PJ03 -26479.722733  21970.910577  29440.358723      1.093526
PJ04 -33717.810328  24993.536442    117.725527     94.155239
PR01  19806.851396     52.622629 -16074.324615     24.975823
PR02  23534.339840  -9648.427350   1453.714426    -23.126433
PR03  12977.942624 -13740.724586  17150.663834     74.386071
PR04  -4291.527718  -9906.013633  23145.000234    179.834490
PR05 -19401.227304   -915.566929  16565.670765    109.501448
PR07 -12410.685663  13701.354173 -17555.199817     51.974083
PR08   4534.466395   9894.355865 -23005.120667    -69.945954
PR09 -11234.660115  12048.789608 -19433.565728    109.790543
PR11   1953.163578  23055.445930  10728.568118    -20.298234
PR12   9726.584964   7540.246158  22363.948836     25.745288
PR13  11295.102707 -10234.393025  20431.432510    -33.084279
PR14   6120.516899 -24153.181265   5506.033211     24.439091
PR15  -2341.331570 -22537.818533 -11703.667438     90.395850
PR16  -9540.659838  -7831.658697 -22324.203156     12.497411
PR17    653.012196 -12478.671350 -22225.024049    613.500619
PR18 -13471.944859 -18103.446065 -11937.394049     72.039211
PR19 -19935.386894 -15602.120707   3157.641642   -225.728459
PR20 -15466.596259  -1649.555575  20240.856174    -89.558828
PR21    912.777656  13396.490153  21690.957877   -381.217549
PR22  13219.041002  18759.960953  11140.291067     75.391358
PR24  15358.292829    295.395334 -20349.971829    154.657575
PR25  -1638.644446  12531.051427  22164.400069     58.084593
EOF
